{"type": "FeatureCollection", "features": [ {"type": "Feature", "properties": {"norad_id": 65304, "name": "DRAGON CRS-33", "group": "stations", "lat": 26.351207611407748, "lon": 171.32865392573277, "alt_km": 417.0465133371299, "timestamp": "2025-12-11T13:55:00.934679+00:00", "meta": {"OBJECT_NAME": "DRAGON CRS-33", "OBJECT_ID": "2025-186A", "EPOCH": "2025-12-11T04:28:53.401152", "MEAN_MOTION": 15.49499993, "ECCENTRICITY": 0.00033343, "INCLINATION": 51.6309, "RA_OF_ASC_NODE": 150.1691, "ARG_OF_PERICENTER": 234.1557, "MEAN_ANOMALY": 125.9122, "EPHEMERIS_TYPE": 0, "CLASSIFICATION_TYPE": "U", "NORAD_CAT_ID": 65304, "ELEMENT_SET_NO": 999, "REV_AT_EPOCH": 11, "BSTAR": 0.00030173842, "MEAN_MOTION_DOT": 0.00016503, "MEAN_MOTION_DDOT": 0}, "tle": {"line1": "1 65304U 25186A   25345.18672918  .00016503  00000+0  30174-3 0  9993", "line2": "2 65304  51.6309 150.1691 0003334 234.1557 125.9122 15.49499993   113"}}, "geometry": {"type": "Point", "coordinates": [171.32865392573277, 26.351207611407748]}}, {"type": "Feature", "properties": {"norad_id": 65586, "name": "PROGRESS-MS 32", "group": "stations", "lat": 26.35120807736028, "lon": 171.3286544250046, "alt_km": 417.0465132708723, "timestamp": "2025-12-11T13:55:00.934689+00:00", "meta": {"OBJECT_NAME": "PROGRESS-MS 32", "OBJECT_ID": "2025-204A", "EPOCH": "2025-12-11T04:28:53.401152", "MEAN_MOTION": 15.49499993, "ECCENTRICITY": 0.00033343, "INCLINATION": 51.6309, "RA_OF_ASC_NODE": 150.1691, "ARG_OF_PERICENTER": 234.1557, "MEAN_ANOMALY": 125.9122, "EPHEMERIS_TYPE": 0, "CLASSIFICATION_TYPE": "U", "NORAD_CAT_ID": 65586, "ELEMENT_SET_NO": 999, "REV_AT_EPOCH": 27, "BSTAR": 0.00030173842, "MEAN_MOTION_DOT": 0.00016503, "MEAN_MOTION_DDOT": 0}, "tle": {"line1": "1 65586U 25204A   25345.18672918  .00016503  00000+0  30174-3 0  9996", "line2": "2 65586  51.6309 150.1691 0003334 234.1557 125.9122 15.49499993   272"}}, "geometry": {"type": "Point", "coordinates": [171.3286544250046, 26.35120807736028]}}, {"type": "Feature", "properties": {"norad_id": 65616, "name": "CYGNUS NG-23", "group": "stations", "lat": 26.351208636502776, "lon": 171.3286550241302, "alt_km": 417.0465131913643, "timestamp": "2025-12-11T13:55:00.934701+00:00", "meta": {"OBJECT_NAME": "CYGNUS NG-23", "OBJECT_ID": "2025-208A", "EPOCH": "2025-12-11T04:28:53.401152", "MEAN_MOTION": 15.49499993, "ECCENTRICITY": 0.00033343, "INCLINATION": 51.6309, "RA_OF_ASC_NODE": 150.1691, "ARG_OF_PERICENTER": 234.1557, "MEAN_ANOMALY": 125.9122, "EPHEMERIS_TYPE": 0, "CLASSIFICATION_TYPE": "U", "NORAD_CAT_ID": 65616, "ELEMENT_SET_NO": 999, "REV_AT_EPOCH": 22, "BSTAR": 0.00030173842, "MEAN_MOTION_DOT": 0.00016503, "MEAN_MOTION_DDOT": 0}, "tle": {"line1": "1 65616U 25208A   25345.18672918  .00016503  00000+0  30174-3 0  9994", "line2": "2 65616  51.6309 150.1691 0003334 234.1557 125.9122 15.49499993   221"}}, "geometry": {"type": "Point", "coordinates": [171.3286550241302, 26.351208636502776]}}, {"type": "Feature", "properties": {"norad_id": 65729, "name": "DRAGONFLY", "group": "stations", "lat": -50.50922999887376, "lon": 67.61906776697218, "alt_km": 355.2382902726349, "timestamp": "2025-12-11T13:55:00.934712+00:00", "meta": {"OBJECT_NAME": "DRAGONFLY", "OBJECT_ID": "1998-067XH", "EPOCH": "2025-12-11T03:34:16.542048", "MEAN_MOTION": 15.71180147, "ECCENTRICITY": 0.00065749, "INCLINATION": 51.6246, "RA_OF_ASC_NODE": 143.9077, "ARG_OF_PERICENTER": 266.7325, "MEAN_ANOMALY": 93.2921, "EPHEMERIS_TYPE": 0, "CLASSIFICATION_TYPE": "U", "NORAD_CAT_ID": 65729, "ELEMENT_SET_NO": 999, "REV_AT_EPOCH": 1291, "BSTAR": 0.0016713149, "MEAN_MOTION_DOT": 0.00221047, "MEAN_MOTION_DDOT": 0}, "tle": {"line1": "1 65729U 98067XH  25345.14880257  .00221047  00000+0  16713-2 0  9998", "line2": "2 65729  51.6246 143.9077 0006574 266.7325  93.2921 15.71180147 12913"}}, "geometry": {"type": "Point", "coordinates": [67.61906776697218, -50.50922999887376]}}, {"type": "Feature", "properties": {"norad_id": 65731, "name": "1998-067XK", "group": "stations", "lat": -23.440474031715546, "lon": 123.02058205603647, "alt_km": 375.4850599666597, "timestamp": "2025-12-11T13:55:00.934722+00:00", "meta": {"OBJECT_NAME": "1998-067XK", "OBJECT_ID": "1998-067XK", "EPOCH": "2025-12-10T11:59:54.530016", "MEAN_MOTION": 15.65134348, "ECCENTRICITY": 0.00051808, "INCLINATION": 51.6281, "RA_OF_ASC_NODE": 148.5918, "ARG_OF_PERICENTER": 231.8122, "MEAN_ANOMALY": 128.2407, "EPHEMERIS_TYPE": 0, "CLASSIFICATION_TYPE": "U", "NORAD_CAT_ID": 65731, "ELEMENT_SET_NO": 999, "REV_AT_EPOCH": 1279, "BSTAR": 0.0012258975, "MEAN_MOTION_DOT": 0.00124892, "MEAN_MOTION_DDOT": 0}, "tle": {"line1": "1 65731U 98067XK  25344.49993669  .00124892  00000+0  12259-2 0  9991", "line2": "2 65731  51.6281 148.5918 0005180 231.8122 128.2407 15.65134348 12799"}}, "geometry": {"type": "Point", "coordinates": [123.02058205603647, -23.440474031715546]}}, {"type": "Feature", "properties": {"norad_id": 65732, "name": "RSP-03", "group": "stations", "lat": -47.3926949420423, "lon": 82.94908637590075, "alt_km": 366.02199080814717, "timestamp": "2025-12-11T13:55:00.934734+00:00", "meta": {"OBJECT_NAME": "RSP-03", "OBJECT_ID": "1998-067XL", "EPOCH": "2025-12-10T19:51:35.371008", "MEAN_MOTION": 15.67939317, "ECCENTRICITY": 0.00058921, "INCLINATION": 51.6264, "RA_OF_ASC_NODE": 146.2697, "ARG_OF_PERICENTER": 237.5222, "MEAN_ANOMALY": 122.5205, "EPHEMERIS_TYPE": 0, "CLASSIFICATION_TYPE": "U", "NORAD_CAT_ID": 65732, "ELEMENT_SET_NO": 999, "REV_AT_EPOCH": 1286, "BSTAR": 0.0014115641, "MEAN_MOTION_DOT": 0.00161929, "MEAN_MOTION_DDOT": 0}, "tle": {"line1": "1 65732U 98067XL  25344.82749272  .00161929  00000+0  14116-2 0  9994", "line2": "2 65732  51.6264 146.2697 0005892 237.5222 122.5205 15.67939317 12866"}}, "geometry": {"type": "Point", "coordinates": [82.94908637590075, -47.3926949420423]}}, {"type": "Feature", "properties": {"norad_id": 65733, "name": "GHS-01", "group": "stations", "lat": -1.663481564226866, "lon": -37.51986401486586, "alt_km": 347.9715001708819, "timestamp": "2025-12-11T13:55:00.934744+00:00", "meta": {"OBJECT_NAME": "GHS-01", "OBJECT_ID": "1998-067XM", "EPOCH": "2025-12-11T04:00:14.108544", "MEAN_MOTION": 15.73916996, "ECCENTRICITY": 0.00069838, "INCLINATION": 51.6283, "RA_OF_ASC_NODE": 143.2841, "ARG_OF_PERICENTER": 269.574, "MEAN_ANOMALY": 90.4459, "EPHEMERIS_TYPE": 0, "CLASSIFICATION_TYPE": "U", "NORAD_CAT_ID": 65733, "ELEMENT_SET_NO": 999, "REV_AT_EPOCH": 1293, "BSTAR": 0.0018348813, "MEAN_MOTION_DOT": 0.0027452, "MEAN_MOTION_DDOT": 0}, "tle": {"line1": "1 65733U 98067XM  25345.16682996  .00274520  00000+0  18349-2 0  9996", "line2": "2 65733  51.6283 143.2841 0006983 269.5740  90.4459 15.73916996 12935"}}, "geometry": {"type": "Point", "coordinates": [-37.51986401486586, -1.663481564226866]}}, {"type": "Feature", "properties": {"norad_id": 65941, "name": "YOTSUBA-KULOVER", "group": "stations", "lat": 44.43750322627115, "lon": -85.17481319801568, "alt_km": 384.34229328719175, "timestamp": "2025-12-11T13:55:00.934757+00:00", "meta": {"OBJECT_NAME": "YOTSUBA-KULOVER", "OBJECT_ID": "1998-067XN", "EPOCH": "2025-12-11T04:11:21.290208", "MEAN_MOTION": 15.59146192, "ECCENTRICITY": 0.0001499, "INCLINATION": 51.6286, "RA_OF_ASC_NODE": 147.8439, "ARG_OF_PERICENTER": 235.0744, "MEAN_ANOMALY": 125.0108, "EPHEMERIS_TYPE": 0, "CLASSIFICATION_TYPE": "U", "NORAD_CAT_ID": 65941, "ELEMENT_SET_NO": 999, "REV_AT_EPOCH": 961, "BSTAR": 0.0011290843, "MEAN_MOTION_DOT": 0.00090601, "MEAN_MOTION_DDOT": 0}, "tle": {"line1": "1 65941U 98067XN  25345.17455197  .00090601  00000+0  11291-2 0  9994", "line2": "2 65941  51.6286 147.8439 0001499 235.0744 125.0108 15.59146192  9615"}}, "geometry": {"type": "Point", "coordinates": [-85.17481319801568, 44.43750322627115]}}, {"type": "Feature", "properties": {"norad_id": 65942, "name": "BOTAN", "group": "stations", "lat": 47.86526475058451, "lon": -153.70244150096354, "alt_km": 375.8781802830099, "timestamp": "2025-12-11T13:55:00.934767+00:00", "meta": {"OBJECT_NAME": "BOTAN", "OBJECT_ID": "1998-067XP", "EPOCH": "2025-12-11T04:24:13.610304", "MEAN_MOTION": 15.62408727, "ECCENTRICITY": 0.00033439, "INCLINATION": 51.6284, "RA_OF_ASC_NODE": 147.154, "ARG_OF_PERICENTER": 226.7557, "MEAN_ANOMALY": 133.3159, "EPHEMERIS_TYPE": 0, "CLASSIFICATION_TYPE": "U", "NORAD_CAT_ID": 65942, "ELEMENT_SET_NO": 999, "REV_AT_EPOCH": 962, "BSTAR": 0.0015270282, "MEAN_MOTION_DOT": 0.00140033, "MEAN_MOTION_DDOT": 0}, "tle": {"line1": "1 65942U 98067XP  25345.18349086  .00140033  00000+0  15270-2 0  9991", "line2": "2 65942  51.6284 147.1540 0003343 226.7557 133.3159 15.62408727  9627"}}, "geometry": {"type": "Point", "coordinates": [-153.70244150096354, 47.86526475058451]}}, {"type": "Feature", "properties": {"norad_id": 65943, "name": "E-KAGAKU-1", "group": "stations", "lat": 44.38831499963118, "lon": -85.05859935069051, "alt_km": 383.0755915461932, "timestamp": "2025-12-11T13:55:00.934777+00:00", "meta": {"OBJECT_NAME": "E-KAGAKU-1", "OBJECT_ID": "1998-067XQ", "EPOCH": "2025-12-10T06:39:08.237952", "MEAN_MOTION": 15.5900432, "ECCENTRICITY": 0.00052507, "INCLINATION": 51.6298, "RA_OF_ASC_NODE": 152.3458, "ARG_OF_PERICENTER": 191.2269, "MEAN_ANOMALY": 168.8608, "EPHEMERIS_TYPE": 0, "CLASSIFICATION_TYPE": "U", "NORAD_CAT_ID": 65943, "ELEMENT_SET_NO": 999, "REV_AT_EPOCH": 947, "BSTAR": 0.0012588803, "MEAN_MOTION_DOT": 0.00100705, "MEAN_MOTION_DDOT": 0}, "tle": {"line1": "1 65943U 98067XQ  25344.27717868  .00100705  00000+0  12589-2 0  9990", "line2": "2 65943  51.6298 152.3458 0005250 191.2269 168.8608 15.59004320  9476"}}, "geometry": {"type": "Point", "coordinates": [-85.05859935069051, 44.38831499963118]}}]}